TANSAT                  
1 41898U 16081A   26157.62544638  .00000403  00000+0  94339-4 0  9993
2 41898  98.5365 157.5714 0020393 345.8472  14.2153 14.59941897503087
JILIN-1 03              
1 41914U 17002B   26157.57427752  .00016320  00000+0  39315-3 0  9994
2 41914  97.1952 164.8105 0005374 188.6707 171.4449 15.41314874520224
CARTOSAT-2D             
1 41948U 17008A   26156.63246799 -.00002160  00000+0 -99469-4 0  9999
2 41948  97.4122 216.1531 0003727 285.1069  74.9753 15.19236200515827
CARTOSAT-2E             
1 42767U 17036C   26157.57214807  .00005895  00000+0  28294-3 0  9992
2 42767  97.4276 217.5494 0003295   3.8584 356.2675 15.19240893496535
IRIDIUM 113             
1 42803U 17039A   26157.49600927  .00000071  00000+0  18278-4 0  9992
2 42803  86.3963 326.6493 0002306  90.9628 269.1832 14.34217281469656
NORSAT 2                
1 42828U 17042D   26157.44148389  .00016274  00000+0  71962-3 0  9997
2 42828  97.4041 331.0550 0010826  90.1782 270.0695 15.21717923486108
TECHNOSAT               
1 42829U 17042E   26157.41131952  .00003563  00000+0  25504-3 0  9991
2 42829  97.4272 315.4814 0018942 127.9977 232.2964 15.04891353485082
FLYING LAPTOP           
1 42831U 17042G   26157.58670742  .00004451  00000+0  35115-3 0  9993
2 42831  97.4649 313.5308 0019017 156.3725 203.8377 15.01075819484866
WNISAT 1R               
1 42835U 17042L   26157.23100471  .00003042  00000+0  23815-3 0  9995
2 42835  97.4833 313.7459 0009858 186.2133 173.8971 15.01714949484861
LEMUR-2-GREENBERG       
1 42837U 17042N   26157.43466286  .00022936  00000+0  76603-3 0  9994
2 42837  97.3820 338.1122 0009553  50.7747 309.4341 15.30993300486743
LEMUR-2-FURIAUS         
1 42840U 17042R   26157.48621575  .00022921  00000+0  79208-3 0  9995
2 42840  97.3773 336.1433 0008580 101.7128 258.5076 15.29895628486578
CORVUS BC2              
1 42846U 17042X   26157.16721588  .00004207  00000+0  29032-3 0  9998
2 42846  97.4067 318.9474 0014108 143.8240 216.3945 15.06228237485408
CORVUS BC1              
1 42847U 17042Y   26157.22949516  .00003751  00000+0  25816-3 0  9998
2 42847  97.4093 319.8140 0013365 122.2429 238.0096 15.06396296485445
VRSS-2                  
1 42954U 17060A   26157.58097677  .00000606  00000+0  84127-4 0  9995
2 42954  97.6514 195.7854 0018078 130.6945 229.5843 14.81175249466886
MOHAMMED VI-A           
1 43005U 17070A   26157.57526084  .00001098  00000+0  16276-3 0  9997
2 43005  97.9556 230.0526 0001554  72.4175 287.7205 14.77057370462413
FENGYUN 3D              
1 43010U 17072A   26157.57613441 -.00000067  00000+0 -97771-5 0  9997
2 43010  99.0127 131.8075 0002655  78.6423 281.5051 14.19736322443484
NOAA 20 (JPSS-1)        
1 43013U 17073A   26157.56934374  .00000076  00000+0  57007-4 0  9996
2 43013  98.7769  97.1265 0000541  38.9175 321.2040 14.19509764442965
MAKERSAT 0              
1 43016U 17073D   26157.40218812  .00029727  00000+0  81303-3 0  9993
2 43016  97.4648  39.8396 0106331 312.0020  47.2202 15.31705731464817
RADFXSAT (FOX-1B)       
1 43017U 17073E   26157.16080816  .00013577  00000+0  59080-3 0  9991
2 43017  97.4715  24.6017 0151244   7.4674 352.8759 15.12530755463720
JILIN-1 04              
1 43022U 17074A   26157.57566417  .00016493  00000+0  38638-3 0  9995
2 43022  97.4847 266.9084 0003213 216.4943 143.6086 15.42174571472632
JILIN-1 05              
1 43023U 17074B   26157.61756134  .00010248  00000+0  31673-3 0  9992
2 43023  97.4853 263.6310 0003747 261.7779  98.3039 15.33710278472384
JILIN-1 06              
1 43024U 17074C   26157.58805184  .00006703  00000+0  20891-3 0  9990
2 43024  97.4780 260.6237 0005291 278.1044  81.9598 15.33580309472212
IRIDIUM 116             
1 43072U 17083C   26157.54040586  .00000231  00000+0  75552-4 0  9991
2 43072  86.3960 326.4554 0001944  95.6088 264.5329 14.34219353442649
IRIDIUM 130             
1 43073U 17083D   26157.50869456  .00000227  00000+0  74165-4 0  9997
2 43073  86.4010 326.7443 0001368  65.2514 294.8824 14.34194363442586
LKW-2                   
1 43080U 17084A   26157.53865056  .00009990  00000+0  38869-3 0  9997
2 43080  97.1195 197.8337 0000318 349.8989  10.2244 15.26200964470064
SUPERVIEW-1 03          
1 43099U 18002A   26157.56808267  .00021109  00000+0  52954-3 0  9999
2 43099  97.3127 242.4250 0046577 217.7498 142.0477 15.38905055466734
CARTOSAT-2F             
1 43111U 18004A   26157.60403428  .00004438  00000+0  21356-3 0  9999
2 43111  97.4789 217.3417 0000171  43.9036 316.2212 15.19292440465723
LKW-3                   
1 43146U 18006A   26157.62468022  .00015547  00000+0  45935-3 0  9994
2 43146  97.6609 317.7885 0002871  10.4026 349.7275 15.35039022467090
